OBJECT_NAME,OBJECT_ID,EPOCH,MEAN_MOTION,ECCENTRICITY,INCLINATION,RA_OF_ASC_NODE,ARG_OF_PERICENTER,MEAN_ANOMALY,EPHEMERIS_TYPE,CLASSIFICATION_TYPE,NORAD_CAT_ID,ELEMENT_SET_NO,REV_AT_EPOCH,BSTAR,MEAN_MOTION_DOT,MEAN_MOTION_DDOT
TEVEL2-7,2025-052AE,2026-07-22T11:10:22.896192,15.32575977,.00070454,97.3893,98.6402,36.4367,323.7354,0,U,63238,999,7542,.57417171E-3,.18018E-3,0
TEVEL2-8,2025-052AF,2026-07-21T16:34:29.350272,15.32536130,.00072056,97.3893,97.8424,39.3565,320.8199,0,U,63239,999,7530,.50898615E-3,.1594E-3,0
FORESAIL-1 PRIME,2025-276DS,2026-07-22T10:34:33.436992,15.18980330,.00022876,97.4184,276.0699,27.1883,332.9471,0,U,66778,999,3575,.18870499E-3,.3879E-4,0
